NORAD_CAT_ID,OBJECT_NAME,OBJECT_TYPE,EPOCH,MEAN_MOTION,ECCENTRICITY,INCLINATION,RA_OF_ASC_NODE,ARG_OF_PERICENTER,MEAN_ANOMALY,BSTAR,MEAN_MOTION_DOT,MEAN_MOTION_DDOT,TLE_LINE0,TLE_LINE1,TLE_LINE2,SEMIMAJOR_AXIS,PERIOD,APOGEE,PERIGEE,DECAYED
55778.0,STARLINK-5816,PAYLOAD,2023-03-19 14:00:01,15.73912614,0.0003452,70.0,110.7239,271.4768,245.29,-0.0070195,-0.00899192,0.0,0 STARLINK-5816,1 55778U 23028AP  23078.58334491 -.00899192  00000-0 -70195-2 0  9998,2 55778  70.0000 110.7239 0003452 271.4768 245.2900 15.73912614  3153,6725.864,91.492,350.051,345.407,0.0
55778.0,STARLINK-5816,PAYLOAD,2023-03-19 22:00:00,15.73260658,0.000351,70.0002,109.7814,266.2061,338.2847,-0.0072261,-0.00899918,0.0,0 STARLINK-5816,1 55778U 23028AP  23078.91667824 -.00899918  00000-0 -72261-2 0  9996,2 55778  70.0002 109.7814 0003510 266.2061 338.2847 15.73260658  1307,6727.722,91.53,351.949,347.226,0.0
55778.0,STARLINK-5816,PAYLOAD,2023-03-20 06:00:00,15.72619405,0.0003741,69.9915,108.8317,268.8535,62.5783,-0.0077016,-0.00929832,0.0,0 STARLINK-5816,1 55778U 23028AP  23079.25001157 -.00929832  00000-0 -77016-2 0  9997,2 55778  69.9915 108.8317 0003741 268.8535  62.5783 15.72619405  3265,6729.551,91.567,353.934,348.898,0.0
55778.0,STARLINK-5816,PAYLOAD,2023-03-20 14:00:01,15.71974847,0.0003714,69.991,107.8913,276.0771,141.5025,-0.0078491,-0.00922716,0.0,0 STARLINK-5816,1 55778U 23028AP  23079.58334491 -.00922716  00000-0 -78491-2 0  9995,2 55778  69.9910 107.8913 0003714 276.0771 141.5025 15.71974847  1307,6731.39,91.605,355.755,350.755,0.0
55778.0,STARLINK-5816,PAYLOAD,2023-03-20 22:00:01,15.71266229,0.0003493,69.9913,106.9518,269.0346,234.0065,-0.0071877,-0.00829221,0.0,0 STARLINK-5816,1 55778U 23028AP  23079.91668981 -.00829221  00000-0 -71877-2 0  9994,2 55778  69.9913 106.9518 0003493 269.0346 234.0065 15.71266229  3363,6733.414,91.646,357.631,352.927,0.0
55778.0,STARLINK-5816,PAYLOAD,2023-03-21 06:00:00,15.70602057,0.0003355,69.9921,106.0132,270.0754,317.5015,-0.007109,-0.00800261,0.0,0 STARLINK-5816,1 55778U 23028AP  23080.25001157 -.00800261  00000-0 -71090-2 0  9999,2 55778  69.9921 106.0132 0003355 270.0754 317.5015 15.70602057  3417,6735.312,91.685,359.437,354.918,0.0
55778.0,STARLINK-5816,PAYLOAD,2023-03-21 14:00:01,15.69953469,0.0003417,69.9931,105.0749,272.1202,39.3144,-0.00048584,-0.00058299,0.0,0 STARLINK-5816,1 55778U 23028AP  23080.58335648 -.00058299  00000-0 -48584-3 0  9999,2 55778  69.9931 105.0749 0003417 272.1202  39.3144 15.69953469  3462,6737.167,91.722,361.334,356.73,0.0
55778.0,STARLINK-5816,PAYLOAD,2023-03-21 22:00:00,15.69865236,0.0003451,69.9949,104.1373,264.3613,130.3696,0.00095659,0.00116132,0.0,0 STARLINK-5816,1 55778U 23028AP  23080.91667824  .00116132  00000-0  95659-3 0  9994,2 55778  69.9949 104.1373 0003451 264.3613 130.3696 15.69865236  1300,6737.42,91.728,361.61,356.959,0.0
55778.0,STARLINK-5816,PAYLOAD,2023-03-22 06:00:00,15.69955796,0.0003477,69.9974,103.1998,269.9998,208.0472,-0.00061844,-0.00074023,0.0,0 STARLINK-5816,1 55778U 23028AP  23081.25001157 -.00074023  00000-0 -61844-3 0  9996,2 55778  69.9974 103.1998 0003477 269.9998 208.0472 15.69955796  3572,6737.16,91.722,361.368,356.683,0.0
55778.0,STARLINK-5816,PAYLOAD,2023-03-22 22:00:00,15.69866074,0.0003392,70.0003,101.325,269.6787,15.0573,0.00096889,0.00117652,0.0,0 STARLINK-5816,1 55778U 23028AP  23081.91667824  .00117652  00000-0  96889-3 0  9999,2 55778  70.0003 101.3250 0003392 269.6787  15.0573 15.69866074  3677,6737.417,91.728,361.567,356.997,0.0
55778.0,STARLINK-5816,PAYLOAD,2023-03-23 06:00:00,15.69945619,0.0003441,70.001,100.3878,273.0772,94.979,-0.00049378,-0.00059223,0.0,0 STARLINK-5816,1 55778U 23028AP  23082.25001157 -.00059223  00000-0 -49378-3 0  9990,2 55778  70.0010 100.3878 0003441 273.0772  94.9790 15.69945619  3735,6737.19,91.723,361.373,356.736,0.0
55778.0,STARLINK-5816,PAYLOAD,2023-03-23 14:00:01,15.69963329,0.0003386,70.0008,99.4504,271.1979,180.234,-0.00052154,-0.0006256,0.0,0 STARLINK-5816,1 55778U 23028AP  23082.58335648 -.00062560  00000-0 -52154-3 0  9995,2 55778  70.0008  99.4504 0003386 271.1979 180.2340 15.69963329  1301,6737.139,91.722,361.285,356.723,0.0
55778.0,STARLINK-5816,PAYLOAD,2023-03-24 17:00:11,15.69881131,0.0003644,70.0007,96.2872,266.7373,61.586,0.00029445,0.0003528,0.0,0 STARLINK-5816,1 55778U 23028AP  23083.70846065  .00035280  00000-0  29445-3 0  9994,2 55778  70.0007  96.2872 0003644 266.7373  61.5860 15.69881131  3959,6737.374,91.727,361.694,356.784,0.0
55778.0,STARLINK-5816,PAYLOAD,2023-03-24 22:00:01,15.69836387,0.0003698,70.0008,95.7019,261.9691,162.8049,0.0014368,0.00175583,0.0,0 STARLINK-5816,1 55778U 23028AP  23083.91668981  .00175583  00000-0  14368-2 0  9994,2 55778  70.0008  95.7019 0003698 261.9691 162.8049 15.69836387  1300,6737.502,91.729,361.859,356.876,0.0
55778.0,STARLINK-5816,PAYLOAD,2023-03-25 03:50:33,15.69900735,0.0003166,70.0009,95.0178,259.3723,100.7116,1.7337e-05,1.87e-05,0.0,0 STARLINK-5816,1 55778U 23028AP  23084.16011232  .00001870  00000-0  17337-4 0  9991,2 55778  70.0009  95.0178 0003166 259.3723 100.7116 15.69900735  4035,6737.318,91.726,361.316,357.05,0.0
55778.0,STARLINK-5816,PAYLOAD,2023-03-25 09:57:34,15.6993353,0.0003632,70.001,94.3014,266.1699,93.9081,0.00048195,0.00058166,0.0,0 STARLINK-5816,1 55778U 23028AP  23084.41498402  .00058166  00000-0  48195-3 0  9992,2 55778  70.0010  94.3014 0003632 266.1699  93.9081 15.69933530  4071,6737.224,91.724,361.536,356.642,0.0
55778.0,STARLINK-5816,PAYLOAD,2023-03-25 17:36:19,15.69973427,0.0003435,70.0014,93.4052,263.5942,96.4862,0.00053637,0.00064915,0.0,0 STARLINK-5816,1 55778U 23028AP  23084.73356088  .00064915  00000-0  53637-3 0  9996,2 55778  70.0014  93.4052 0003435 263.5942  96.4862 15.69973427  4120,6737.11,91.721,361.289,356.661,0.0
55778.0,STARLINK-5816,PAYLOAD,2023-03-26 02:46:49,15.69965078,0.000398,70.0016,92.3318,258.8859,101.1889,0.0004311,0.0005204,0.0,0 STARLINK-5816,1 55778U 23028AP  23085.11585251  .00052040  00000-0  43110-3 0  9996,2 55778  70.0016  92.3318 0003980 258.8859 101.1889 15.69965078  4186,6737.134,91.722,361.68,356.318,0.0
55778.0,STARLINK-5816,PAYLOAD,2023-03-26 10:25:35,15.69918752,0.0002991,70.0019,91.4358,243.8616,116.2272,0.00024276,0.0002907,0.0,0 STARLINK-5816,1 55778U 23028AP  23085.43444096  .00029070  00000-0  24276-3 0  9991,2 55778  70.0019  91.4358 0002991 243.8616 116.2272 15.69918752  4235,6737.266,91.724,361.147,357.116,0.0
55778.0,STARLINK-5816,PAYLOAD,2023-03-26 18:04:21,15.69938711,0.000352,70.0011,90.5396,262.3551,97.7245,0.00019482,0.00023292,0.0,0 STARLINK-5816,1 55778U 23028AP  23085.75302298  .00023292  00000-0  19482-3 0  9996,2 55778  70.0011  90.5396 0003520 262.3551  97.7245 15.69938711  4287,6737.209,91.723,361.446,356.703,0.0
55778.0,STARLINK-5816,PAYLOAD,2023-03-27 06:00:00,15.69926843,0.0003527,70.0015,89.142,264.0315,24.0475,-0.00011182,-0.00013638,0.0,0 STARLINK-5816,1 55778U 23028AP  23086.25001157 -.00013638  00000-0 -11182-3 0  9996,2 55778  70.0015  89.1420 0003527 264.0315  24.0475 15.69926843  4356,6737.243,91.724,361.485,356.732,0.0
55778.0,STARLINK-5816,PAYLOAD,2023-03-27 14:00:01,15.69930649,0.0003405,70.0013,88.2049,269.162,102.2478,-0.00019504,-0.00023605,0.0,0 STARLINK-5816,1 55778U 23028AP  23086.58334491 -.00023605  00000-0 -19504-3 0  9993,2 55778  70.0013  88.2049 0003405 269.1620 102.2478 15.69930649  1304,6737.232,91.724,361.391,356.803,0.0
55778.0,STARLINK-5816,PAYLOAD,2023-03-27 22:00:00,15.6990132,0.0003338,70.0016,87.2681,264.5216,190.219,0.00065634,0.00079381,0.0,0 STARLINK-5816,1 55778U 23028AP  23086.91667824  .00079381  00000-0  65634-3 0  9994,2 55778  70.0016  87.2681 0003338 264.5216 190.2190 15.69901320  1305,6737.316,91.726,361.43,356.932,0.0
55778.0,STARLINK-5816,PAYLOAD,2023-03-28 03:42:53,15.69930262,0.0003341,70.0016,86.6003,257.9073,102.1748,2.6067e-05,2.924e-05,0.0,0 STARLINK-5816,1 55778U 23028AP  23087.15478973  .00002924  00000-0  26067-4 0  9993,2 55778  70.0016  86.6003 0003341 257.9073 102.1748 15.69930262  4500,6737.234,91.724,361.349,356.848,0.0
55778.0,STARLINK-5816,PAYLOAD,2023-03-28 11:21:39,15.69934295,0.0003046,70.002,85.7047,261.5883,98.4967,4.1516e-05,4.784e-05,0.0,0 STARLINK-5816,1 55778U 23028AP  23087.47337272  .00004784  00000-0  41516-4 0  9996,2 55778  70.0020  85.7047 0003046 261.5883  98.4967 15.69934295  4550,6737.222,91.724,361.139,357.035,0.0
55778.0,STARLINK-5816,PAYLOAD,2023-03-28 17:28:40,15.69922712,0.0001836,70.0034,84.9905,285.15,74.9493,3.6101e-06,2.22e-06,0.0,0 STARLINK-5816,1 55778U 23028AP  23087.72824718  .00000222  00000-0  36101-5 0  9998,2 55778  70.0034  84.9905 0001836 285.1500  74.9493 15.69922712  4590,6737.255,91.724,360.357,357.883,0.0
55778.0,STARLINK-5816,PAYLOAD,2023-03-29 11:49:41,15.699364,0.0003081,70.0011,82.8398,267.8913,92.193,5.3248e-05,6.198e-05,0.0,0 STARLINK-5816,1 55778U 23028AP  23088.49284019  .00006198  00000-0  53248-4 0  9995,2 55778  70.0011  82.8398 0003081 267.8913  92.1930 15.69936400  4718,6737.216,91.723,361.157,357.005,0.0
55778.0,STARLINK-5816,PAYLOAD,2023-03-30 01:35:27,15.69925946,0.0003288,70.0026,81.2282,266.2481,93.8339,2.0173e-05,2.214e-05,0.0,0 STARLINK-5816,1 55778U 23028AP  23089.06629331  .00002214  00000-0  20173-4 0  9995,2 55778  70.0026  81.2282 0003288 266.2481  93.8339 15.69925946  4805,6737.246,91.724,361.326,356.896,0.0
55778.0,STARLINK-5816,PAYLOAD,2023-03-30 10:45:58,15.69913802,0.00025,70.0023,80.1526,258.3076,101.7839,-2.7807e-05,-3.552e-05,0.0,0 STARLINK-5816,1 55778U 23028AP  23089.44859760 -.00003552  00000-0 -27807-4 0  9997,2 55778  70.0023  80.1526 0002500 258.3076 101.7839 15.69913802  4867,6737.281,91.725,360.83,357.461,0.0
55778.0,STARLINK-5816,PAYLOAD,2023-04-01 02:31:32,15.69918487,0.000304,70.0006,75.4914,270.1402,89.9446,-8.0468e-06,-1.18e-05,0.0,0 STARLINK-5816,1 55778U 23028AP  23091.10523221 -.00001180  00000-0 -80468-5 0  9991,2 55778  70.0006  75.4914 0003040 270.1402  89.9446 15.69918487  5126,6737.267,91.725,361.18,357.084,0.0
